{
  "type": "FeatureCollection",
  "features": [
    {
      "type": "Feature",
      "properties": {
        "constituency": "Dagoretti North"
      },
      "geometry": {
        "type": "MultiPolygon",
        "coordinates": [
          [
            [
              [
                36.7608,
                -1.2682
              ],
              [
                36.7597,
                -1.2653
              ],
              [
                36.7528,
                -1.2616
              ],
              [
                36.7789,
                -1.2563
              ],
              [
                36.7987,
                -1.2591
              ],
              [
                36.8117,
                -1.2725
              ],
              [
                36.8197,
                -1.2906
              ],
              [
                36.7926,
                -1.2972
              ],
              [
                36.7684,
                -1.2978
              ],
              [
                36.7564,
                -1.2953
              ],
              [
                36.7514,
                -1.2897
              ],
              [
                36.7539,
                -1.2861
              ],
              [
                36.7539,
                -1.2835
              ],
              [
                36.7492,
                -1.2717
              ],
              [
                36.7569,
                -1.2712
              ],
              [
                36.7575,
                -1.2686
              ],
              [
                36.7608,
                -1.2682
              ]
            ]
          ]
        ]
      }
    },
    {
      "type": "Feature",
      "properties": {
        "constituency": "Dagoretti South"
      },
      "geometry": {
        "type": "MultiPolygon",
        "coordinates": [
          [
            [
              [
                36.7538,
                -1.2918
              ],
              [
                36.7564,
                -1.2953
              ],
              [
                36.7606,
                -1.2961
              ],
              [
                36.7312,
                -1.3061
              ],
              [
                36.7303,
                -1.2996
              ],
              [
                36.737,
                -1.298
              ],
              [
                36.7362,
                -1.2942
              ],
              [
                36.7267,
                -1.2943
              ],
              [
                36.7234,
                -1.3008
              ],
              [
                36.7085,
                -1.2951
              ],
              [
                36.7067,
                -1.3027
              ],
              [
                36.6941,
                -1.295
              ],
              [
                36.6892,
                -1.2951
              ],
              [
                36.6868,
                -1.2936
              ],
              [
                36.6846,
                -1.2982
              ],
              [
                36.678,
                -1.2984
              ],
              [
                36.6807,
                -1.2965
              ],
              [
                36.6863,
                -1.2824
              ],
              [
                36.6894,
                -1.2789
              ],
              [
                36.6893,
                -1.273
              ],
              [
                36.6915,
                -1.2731
              ],
              [
                36.6901,
                -1.2652
              ],
              [
                36.6947,
                -1.2643
              ],
              [
                36.6931,
                -1.2622
              ],
              [
                36.6966,
                -1.262
              ],
              [
                36.6931,
                -1.2578
              ],
              [
                36.6949,
                -1.2558
              ],
              [
                36.6937,
                -1.2539
              ],
              [
                36.6964,
                -1.2536
              ],
              [
                36.7005,
                -1.2559
              ],
              [
                36.7026,
                -1.2518
              ],
              [
                36.7156,
                -1.2543
              ],
              [
                36.7184,
                -1.2566
              ],
              [
                36.7252,
                -1.2447
              ],
              [
                36.7255,
                -1.2485
              ],
              [
                36.7184,
                -1.2606
              ],
              [
                36.7373,
                -1.2754
              ],
              [
                36.7492,
                -1.2717
              ],
              [
                36.7537,
                -1.2825
              ],
              [
                36.7539,
                -1.2861
              ],
              [
                36.7513,
                -1.289
              ],
              [
                36.7538,
                -1.2918
              ]
            ]
          ]
        ]
      }
    },
    {
      "type": "Feature",
      "properties": {
        "constituency": "Embakasi Central"
      },
      "geometry": {
        "type": "MultiPolygon",
        "coordinates": [
          [
            [
              [
                36.9181,
                -1.2803
              ],
              [
                36.9148,
                -1.2851
              ],
              [
                36.9155,
                -1.2875
              ],
              [
                36.9123,
                -1.2887
              ],
              [
                36.906,
                -1.2774
              ],
              [
                36.902,
                -1.2795
              ],
              [
                36.8973,
                -1.2695
              ],
              [
                36.9093,
                -1.2577
              ],
              [
                36.9336,
                -1.2506
              ],
              [
                36.9381,
                -1.263
              ],
              [
                36.9245,
                -1.2656
              ],
              [
                36.9247,
                -1.2676
              ],
              [
                36.9201,
                -1.2706
              ],
              [
                36.9207,
                -1.2747
              ],
              [
                36.9177,
                -1.2762
              ],
              [
                36.9181,
                -1.2803
              ]
            ]
          ]
        ]
      }
    },
    {
      "type": "Feature",
      "properties": {
        "constituency": "Embakasi East"
      },
      "geometry": {
        "type": "MultiPolygon",
        "coordinates": [
          [
            [
              [
                36.9756,
                -1.2916
              ],
              [
                36.9836,
                -1.3125
              ],
              [
                36.9658,
                -1.3518
              ],
              [
                36.9604,
                -1.346
              ],
              [
                36.9339,
                -1.3364
              ],
              [
                36.9075,
                -1.3601
              ],
              [
                36.8814,
                -1.3338
              ],
              [
                36.8993,
                -1.3214
              ],
              [
                36.8885,
                -1.3037
              ],
              [
                36.8856,
                -1.2924
              ],
              [
                36.8922,
                -1.2889
              ],
              [
                36.8991,
                -1.2817
              ],
              [
                36.906,
                -1.2774
              ],
              [
                36.9119,
                -1.2884
              ],
              [
                36.9145,
                -1.2884
              ],
              [
                36.9148,
                -1.2851
              ],
              [
                36.9181,
                -1.2803
              ],
              [
                36.9177,
                -1.2762
              ],
              [
                36.9207,
                -1.2747
              ],
              [
                36.9204,
                -1.2701
              ],
              [
                36.924,
                -1.2683
              ],
              [
                36.9245,
                -1.2656
              ],
              [
                36.9268,
                -1.2644
              ],
              [
                36.9374,
                -1.2636
              ],
              [
                36.9361,
                -1.2575
              ],
              [
                36.9675,
                -1.2584
              ],
              [
                36.98,
                -1.2663
              ],
              [
                36.9902,
                -1.2808
              ],
              [
                36.9738,
                -1.2872
              ],
              [
                36.9756,
                -1.2916
              ]
            ]
          ]
        ]
      }
    },
    {
      "type": "Feature",
      "properties": {
        "constituency": "Embakasi North"
      },
      "geometry": {
        "type": "MultiPolygon",
        "coordinates": [
          [
            [
              [
                36.8937,
                -1.2556
              ],
              [
                36.8884,
                -1.2583
              ],
              [
                36.8783,
                -1.2599
              ],
              [
                36.8772,
                -1.2465
              ],
              [
                36.8861,
                -1.2466
              ],
              [
                36.8895,
                -1.2521
              ],
              [
                36.893,
                -1.25
              ],
              [
                36.8923,
                -1.2469
              ],
              [
                36.8959,
                -1.2431
              ],
              [
                36.8957,
                -1.2411
              ],
              [
                36.9017,
                -1.2397
              ],
              [
                36.9016,
                -1.2374
              ],
              [
                36.9035,
                -1.2361
              ],
              [
                36.9129,
                -1.2349
              ],
              [
                36.9185,
                -1.2385
              ],
              [
                36.9228,
                -1.2375
              ],
              [
                36.9253,
                -1.2392
              ],
              [
                36.9305,
                -1.2376
              ],
              [
                36.9259,
                -1.2403
              ],
              [
                36.917,
                -1.2403
              ],
              [
                36.9033,
                -1.2495
              ],
              [
                36.9021,
                -1.253
              ],
              [
                36.8937,
                -1.2556
              ]
            ]
          ]
        ]
      }
    },
    {
      "type": "Feature",
      "properties": {
        "constituency": "Embakasi South"
      },
      "geometry": {
        "type": "MultiPolygon",
        "coordinates": [
          [
            [
              [
                36.9065,
                -1.361
              ],
              [
                36.9056,
                -1.3618
              ],
              [
                36.9134,
                -1.3707
              ],
              [
                36.9076,
                -1.3705
              ],
              [
                36.8949,
                -1.3565
              ],
              [
                36.8924,
                -1.3586
              ],
              [
                36.8822,
                -1.3473
              ],
              [
                36.84,
                -1.3185
              ],
              [
                36.8473,
                -1.3169
              ],
              [
                36.8521,
                -1.3138
              ],
              [
                36.8614,
                -1.3143
              ],
              [
                36.863,
                -1.3118
              ],
              [
                36.8679,
                -1.3098
              ],
              [
                36.8723,
                -1.3112
              ],
              [
                36.8887,
                -1.3041
              ],
              [
                36.8993,
                -1.3214
              ],
              [
                36.8814,
                -1.3338
              ],
              [
                36.9075,
                -1.3601
              ],
              [
                36.9065,
                -1.361
              ]
            ]
          ]
        ]
      }
    },
    {
      "type": "Feature",
      "properties": {
        "constituency": "Embakasi West"
      },
      "geometry": {
        "type": "MultiPolygon",
        "coordinates": [
          [
            [
              [
                36.8859,
                -1.2923
              ],
              [
                36.8816,
                -1.2746
              ],
              [
                36.8785,
                -1.2755
              ],
              [
                36.8805,
                -1.2797
              ],
              [
                36.8777,
                -1.2795
              ],
              [
                36.8755,
                -1.2813
              ],
              [
                36.8739,
                -1.2787
              ],
              [
                36.8666,
                -1.285
              ],
              [
                36.8644,
                -1.281
              ],
              [
                36.8699,
                -1.2782
              ],
              [
                36.8745,
                -1.2658
              ],
              [
                36.8773,
                -1.2656
              ],
              [
                36.8783,
                -1.2635
              ],
              [
                36.8783,
                -1.2599
              ],
              [
                36.8884,
                -1.2583
              ],
              [
                36.8974,
                -1.2543
              ],
              [
                36.9091,
                -1.2546
              ],
              [
                36.9137,
                -1.2564
              ],
              [
                36.9084,
                -1.2583
              ],
              [
                36.8973,
                -1.2695
              ],
              [
                36.902,
                -1.2795
              ],
              [
                36.8922,
                -1.2889
              ],
              [
                36.8859,
                -1.2923
              ]
            ]
          ]
        ]
      }
    },
    {
      "type": "Feature",
      "properties": {
        "constituency": "Kamukunji"
      },
      "geometry": {
        "type": "MultiPolygon",
        "coordinates": [
          [
            [
              [
                36.8517,
                -1.289
              ],
              [
                36.8506,
                -1.2919
              ],
              [
                36.8402,
                -1.2898
              ],
              [
                36.8399,
                -1.2866
              ],
              [
                36.8315,
                -1.2834
              ],
              [
                36.8394,
                -1.2843
              ],
              [
                36.8379,
                -1.2825
              ],
              [
                36.8437,
                -1.2805
              ],
              [
                36.8438,
                -1.2779
              ],
              [
                36.8458,
                -1.2778
              ],
              [
                36.8432,
                -1.2651
              ],
              [
                36.8583,
                -1.2635
              ],
              [
                36.8687,
                -1.259
              ],
              [
                36.8783,
                -1.2599
              ],
              [
                36.8783,
                -1.2635
              ],
              [
                36.8773,
                -1.2656
              ],
              [
                36.8745,
                -1.2658
              ],
              [
                36.8699,
                -1.2782
              ],
              [
                36.8515,
                -1.2874
              ],
              [
                36.8517,
                -1.289
              ]
            ]
          ]
        ]
      }
    },
    {
      "type": "Feature",
      "properties": {
        "constituency": "Kasarani"
      },
      "geometry": {
        "type": "MultiPolygon",
        "coordinates": [
          [
            [
              [
                37.0065,
                -1.2339
              ],
              [
                37.0127,
                -1.2328
              ],
              [
                37.0129,
                -1.2284
              ],
              [
                37.0145,
                -1.2265
              ],
              [
                37.0165,
                -1.2265
              ],
              [
                37.0173,
                -1.2246
              ],
              [
                37.0222,
                -1.2249
              ],
              [
                37.0228,
                -1.2217
              ],
              [
                37.0307,
                -1.2181
              ],
              [
                37.0335,
                -1.2134
              ],
              [
                37.0379,
                -1.21
              ],
              [
                37.0535,
                -1.2041
              ],
              [
                37.0576,
                -1.2066
              ],
              [
                37.0627,
                -1.2027
              ],
              [
                37.0803,
                -1.2349
              ],
              [
                37.0882,
                -1.2311
              ],
              [
                37.0948,
                -1.2423
              ],
              [
                37.0862,
                -1.2462
              ],
              [
                37.1034,
                -1.2619
              ],
              [
                37.1007,
                -1.273
              ],
              [
                37.0972,
                -1.2707
              ],
              [
                37.085,
                -1.2763
              ],
              [
                37.0823,
                -1.2826
              ],
              [
                37.0773,
                -1.2815
              ],
              [
                37.076,
                -1.2889
              ],
              [
                37.0724,
                -1.2925
              ],
              [
                37.0723,
                -1.2971
              ],
              [
                37.0757,
                -1.2984
              ],
              [
                37.0756,
                -1.3013
              ],
              [
                37.026,
                -1.2895
              ],
              [
                37.0019,
                -1.2984
              ],
              [
                36.9948,
                -1.2791
              ],
              [
                36.9902,
                -1.2808
              ],
              [
                36.98,
                -1.2663
              ],
              [
                36.9675,
                -1.2584
              ],
              [
                36.9361,
                -1.2575
              ],
              [
                36.9336,
                -1.2506
              ],
              [
                36.9137,
                -1.2564
              ],
              [
                36.9091,
                -1.2546
              ],
              [
                36.8988,
                -1.2542
              ],
              [
                36.9021,
                -1.253
              ],
              [
                36.9033,
                -1.2495
              ],
              [
                36.917,
                -1.2403
              ],
              [
                36.9259,
                -1.2403
              ],
              [
                36.9305,
                -1.2376
              ],
              [
                36.9257,
                -1.2392
              ],
              [
                36.9228,
                -1.2375
              ],
              [
                36.9188,
                -1.2386
              ],
              [
                36.9055,
                -1.231
              ],
              [
                36.9016,
                -1.2329
              ],
              [
                36.897,
                -1.2319
              ],
              [
                36.8936,
                -1.2354
              ],
              [
                36.8855,
                -1.2342
              ],
              [
                36.8808,
                -1.2369
              ],
              [
                36.8761,
                -1.2364
              ],
              [
                36.8748,
                -1.2382
              ],
              [
                36.8692,
                -1.2359
              ],
              [
                36.8962,
                -1.2117
              ],
              [
                36.9124,
                -1.2051
              ],
              [
                36.9155,
                -1.2103
              ],
              [
                36.9314,
                -1.2201
              ],
              [
                36.9376,
                -1.2192
              ],
              [
                36.949,
                -1.2246
              ],
              [
                36.9531,
                -1.2242
              ],
              [
                36.9568,
                -1.2271
              ],
              [
                36.9612,
                -1.2252
              ],
              [
                36.9694,
                -1.2269
              ],
              [
                36.9774,
                -1.2223
              ],
              [
                36.9864,
                -1.221
              ],
              [
                36.9915,
                -1.2228
              ],
              [
                36.9951,
                -1.2303
              ],
              [
                37.0065,
                -1.2339
              ]
            ]
          ]
        ]
      }
    },
    {
      "type": "Feature",
      "properties": {
        "constituency": "Kibra"
      },
      "geometry": {
        "type": "MultiPolygon",
        "coordinates": [
          [
            [
              [
                36.8,
                -1.315
              ],
              [
                36.7942,
                -1.3177
              ],
              [
                36.7893,
                -1.3142
              ],
              [
                36.7888,
                -1.3121
              ],
              [
                36.782,
                -1.3149
              ],
              [
                36.7725,
                -1.314
              ],
              [
                36.7707,
                -1.3102
              ],
              [
                36.7682,
                -1.3112
              ],
              [
                36.7667,
                -1.3078
              ],
              [
                36.7555,
                -1.3092
              ],
              [
                36.7527,
                -1.3047
              ],
              [
                36.7473,
                -1.3059
              ],
              [
                36.7474,
                -1.3011
              ],
              [
                36.7606,
                -1.2961
              ],
              [
                36.7684,
                -1.2978
              ],
              [
                36.7926,
                -1.2972
              ],
              [
                36.8197,
                -1.2906
              ],
              [
                36.8234,
                -1.2974
              ],
              [
                36.8222,
                -1.2975
              ],
              [
                36.8222,
                -1.3022
              ],
              [
                36.8181,
                -1.3036
              ],
              [
                36.815,
                -1.3028
              ],
              [
                36.8068,
                -1.3058
              ],
              [
                36.8076,
                -1.3075
              ],
              [
                36.8157,
                -1.3095
              ],
              [
                36.8062,
                -1.3142
              ],
              [
                36.8,
                -1.315
              ]
            ]
          ]
        ]
      }
    },
    {
      "type": "Feature",
      "properties": {
        "constituency": "Langata"
      },
      "geometry": {
        "type": "MultiPolygon",
        "coordinates": [
          [
            [
              [
                36.8902,
                -1.4107
              ],
              [
                36.8944,
                -1.411
              ],
              [
                36.8951,
                -1.4094
              ],
              [
                36.8819,
                -1.4037
              ],
              [
                36.8785,
                -1.4048
              ],
              [
                36.8755,
                -1.4035
              ],
              [
                36.8708,
                -1.4052
              ],
              [
                36.8695,
                -1.4011
              ],
              [
                36.8638,
                -1.4017
              ],
              [
                36.8573,
                -1.3966
              ],
              [
                36.8497,
                -1.3943
              ],
              [
                36.8449,
                -1.3892
              ],
              [
                36.8443,
                -1.3848
              ],
              [
                36.8419,
                -1.3843
              ],
              [
                36.8395,
                -1.386
              ],
              [
                36.837,
                -1.3846
              ],
              [
                36.8363,
                -1.3864
              ],
              [
                36.8282,
                -1.3855
              ],
              [
                36.8221,
                -1.383
              ],
              [
                36.8197,
                -1.379
              ],
              [
                36.8148,
                -1.3797
              ],
              [
                36.8116,
                -1.3843
              ],
              [
                36.8094,
                -1.383
              ],
              [
                36.8088,
                -1.3857
              ],
              [
                36.8057,
                -1.387
              ],
              [
                36.8051,
                -1.3844
              ],
              [
                36.8026,
                -1.3864
              ],
              [
                36.8002,
                -1.385
              ],
              [
                36.796,
                -1.3859
              ],
              [
                36.7954,
                -1.3834
              ],
              [
                36.7937,
                -1.3829
              ],
              [
                36.7896,
                -1.3858
              ],
              [
                36.7868,
                -1.3848
              ],
              [
                36.7829,
                -1.3868
              ],
              [
                36.7801,
                -1.3839
              ],
              [
                36.7724,
                -1.3866
              ],
              [
                36.7665,
                -1.3863
              ],
              [
                36.7642,
                -1.3833
              ],
              [
                36.7607,
                -1.3823
              ],
              [
                36.7489,
                -1.3824
              ],
              [
                36.7442,
                -1.3785
              ],
              [
                36.7415,
                -1.3794
              ],
              [
                36.728,
                -1.3725
              ],
              [
                36.7022,
                -1.3495
              ],
              [
                36.6928,
                -1.3506
              ],
              [
                36.6894,
                -1.3471
              ],
              [
                36.6849,
                -1.3348
              ],
              [
                36.6826,
                -1.3349
              ],
              [
                36.6789,
                -1.326
              ],
              [
                36.6749,
                -1.3278
              ],
              [
                36.6691,
                -1.3236
              ],
              [
                36.6728,
                -1.3219
              ],
              [
                36.6635,
                -1.3173
              ],
              [
                36.6702,
                -1.3036
              ],
              [
                36.6747,
                -1.3048
              ],
              [
                36.678,
                -1.2984
              ],
              [
                36.6846,
                -1.2982
              ],
              [
                36.6868,
                -1.2936
              ],
              [
                36.6892,
                -1.2951
              ],
              [
                36.6941,
                -1.295
              ],
              [
                36.7063,
                -1.3027
              ],
              [
                36.7085,
                -1.2951
              ],
              [
                36.7234,
                -1.3008
              ],
              [
                36.7267,
                -1.2943
              ],
              [
                36.7362,
                -1.2942
              ],
              [
                36.737,
                -1.298
              ],
              [
                36.7303,
                -1.2996
              ],
              [
                36.7312,
                -1.3061
              ],
              [
                36.7474,
                -1.3011
              ],
              [
                36.7473,
                -1.3059
              ],
              [
                36.7527,
                -1.3047
              ],
              [
                36.7555,
                -1.3092
              ],
              [
                36.7667,
                -1.3078
              ],
              [
                36.7682,
                -1.3112
              ],
              [
                36.7707,
                -1.3102
              ],
              [
                36.7725,
                -1.314
              ],
              [
                36.7771,
                -1.3138
              ],
              [
                36.7782,
                -1.3151
              ],
              [
                36.7892,
                -1.3122
              ],
              [
                36.7893,
                -1.3142
              ],
              [
                36.7942,
                -1.3177
              ],
              [
                36.7997,
                -1.3159
              ],
              [
                36.8004,
                -1.3143
              ],
              [
                36.8051,
                -1.3146
              ],
              [
                36.8119,
                -1.3105
              ],
              [
                36.8151,
                -1.3103
              ],
              [
                36.8156,
                -1.3092
              ],
              [
                36.806,
                -1.3064
              ],
              [
                36.815,
                -1.3028
              ],
              [
                36.821,
                -1.3029
              ],
              [
                36.823,
                -1.3003
              ],
              [
                36.8222,
                -1.2975
              ],
              [
                36.8234,
                -1.2975
              ],
              [
                36.8316,
                -1.3134
              ],
              [
                36.8517,
                -1.3256
              ],
              [
                36.851,
                -1.3269
              ],
              [
                36.8822,
                -1.3473
              ],
              [
                36.8924,
                -1.3586
              ],
              [
                36.8949,
                -1.3565
              ],
              [
                36.9076,
                -1.3705
              ],
              [
                36.9134,
                -1.3707
              ],
              [
                36.921,
                -1.3845
              ],
              [
                36.9227,
                -1.392
              ],
              [
                36.9281,
                -1.392
              ],
              [
                36.9316,
                -1.3963
              ],
              [
                36.9364,
                -1.3968
              ],
              [
                36.9422,
                -1.4014
              ],
              [
                36.9453,
                -1.4065
              ],
              [
                36.9472,
                -1.4202
              ],
              [
                36.9548,
                -1.4262
              ],
              [
                36.9595,
                -1.4351
              ],
              [
                36.9621,
                -1.4364
              ],
              [
                36.961,
                -1.4421
              ],
              [
                36.9578,
                -1.4404
              ],
              [
                36.9558,
                -1.435
              ],
              [
                36.9501,
                -1.4356
              ],
              [
                36.9428,
                -1.4306
              ],
              [
                36.9314,
                -1.4305
              ],
              [
                36.8899,
                -1.4123
              ],
              [
                36.8902,
                -1.4107
              ]
            ]
          ]
        ]
      }
    },
    {
      "type": "Feature",
      "properties": {
        "constituency": "Makadara"
      },
      "geometry": {
        "type": "MultiPolygon",
        "coordinates": [
          [
            [
              [
                36.886,
                -1.2941
              ],
              [
                36.8883,
                -1.3049
              ],
              [
                36.8723,
                -1.3112
              ],
              [
                36.8673,
                -1.31
              ],
              [
                36.8614,
                -1.3143
              ],
              [
                36.8572,
                -1.315
              ],
              [
                36.8559,
                -1.3138
              ],
              [
                36.8605,
                -1.3082
              ],
              [
                36.8562,
                -1.298
              ],
              [
                36.8447,
                -1.2992
              ],
              [
                36.8377,
                -1.2895
              ],
              [
                36.8506,
                -1.2919
              ],
              [
                36.8515,
                -1.2874
              ],
              [
                36.861,
                -1.2818
              ],
              [
                36.8644,
                -1.281
              ],
              [
                36.8666,
                -1.285
              ],
              [
                36.8739,
                -1.2787
              ],
              [
                36.8755,
                -1.2813
              ],
              [
                36.8777,
                -1.2795
              ],
              [
                36.8805,
                -1.2797
              ],
              [
                36.8785,
                -1.2755
              ],
              [
                36.8816,
                -1.2746
              ],
              [
                36.886,
                -1.2941
              ]
            ]
          ]
        ]
      }
    },
    {
      "type": "Feature",
      "properties": {
        "constituency": "Mathare"
      },
      "geometry": {
        "type": "MultiPolygon",
        "coordinates": [
          [
            [
              [
                36.85,
                -1.2637
              ],
              [
                36.8431,
                -1.2651
              ],
              [
                36.8421,
                -1.262
              ],
              [
                36.8369,
                -1.2618
              ],
              [
                36.8465,
                -1.2562
              ],
              [
                36.8504,
                -1.2561
              ],
              [
                36.8555,
                -1.2605
              ],
              [
                36.8588,
                -1.2606
              ],
              [
                36.8641,
                -1.2549
              ],
              [
                36.876,
                -1.2496
              ],
              [
                36.8772,
                -1.2465
              ],
              [
                36.8783,
                -1.2599
              ],
              [
                36.8687,
                -1.259
              ],
              [
                36.8583,
                -1.2635
              ],
              [
                36.85,
                -1.2637
              ]
            ]
          ]
        ]
      }
    },
    {
      "type": "Feature",
      "properties": {
        "constituency": "Roysambu"
      },
      "geometry": {
        "type": "MultiPolygon",
        "coordinates": [
          [
            [
              [
                36.8308,
                -1.2075
              ],
              [
                36.8301,
                -1.2036
              ],
              [
                36.8341,
                -1.2078
              ],
              [
                36.8389,
                -1.2073
              ],
              [
                36.8489,
                -1.2116
              ],
              [
                36.8507,
                -1.2009
              ],
              [
                36.8556,
                -1.1992
              ],
              [
                36.8597,
                -1.2005
              ],
              [
                36.8629,
                -1.1882
              ],
              [
                36.8725,
                -1.1941
              ],
              [
                36.8857,
                -1.1937
              ],
              [
                36.8902,
                -1.1907
              ],
              [
                36.8991,
                -1.1909
              ],
              [
                36.895,
                -1.1855
              ],
              [
                36.8964,
                -1.1842
              ],
              [
                36.8943,
                -1.1806
              ],
              [
                36.8877,
                -1.1712
              ],
              [
                36.8934,
                -1.167
              ],
              [
                36.8978,
                -1.1584
              ],
              [
                36.9196,
                -1.16
              ],
              [
                36.9207,
                -1.1623
              ],
              [
                36.924,
                -1.1632
              ],
              [
                36.9268,
                -1.1664
              ],
              [
                36.9331,
                -1.1672
              ],
              [
                36.9418,
                -1.1731
              ],
              [
                36.9111,
                -1.2064
              ],
              [
                36.8956,
                -1.2121
              ],
              [
                36.872,
                -1.2322
              ],
              [
                36.8662,
                -1.2418
              ],
              [
                36.8517,
                -1.2558
              ],
              [
                36.8419,
                -1.2583
              ],
              [
                36.8462,
                -1.2457
              ],
              [
                36.8437,
                -1.2413
              ],
              [
                36.8423,
                -1.2299
              ],
              [
                36.8345,
                -1.2182
              ],
              [
                36.8346,
                -1.2136
              ],
              [
                36.8308,
                -1.2075
              ]
            ]
          ]
        ]
      }
    },
    {
      "type": "Feature",
      "properties": {
        "constituency": "Ruaraka"
      },
      "geometry": {
        "type": "MultiPolygon",
        "coordinates": [
          [
            [
              [
                36.8582,
                -1.2605
              ],
              [
                36.8555,
                -1.2605
              ],
              [
                36.8504,
                -1.2561
              ],
              [
                36.8575,
                -1.2514
              ],
              [
                36.8662,
                -1.2418
              ],
              [
                36.8692,
                -1.2359
              ],
              [
                36.8748,
                -1.2382
              ],
              [
                36.8761,
                -1.2364
              ],
              [
                36.8808,
                -1.2369
              ],
              [
                36.8855,
                -1.2342
              ],
              [
                36.8936,
                -1.2354
              ],
              [
                36.897,
                -1.2319
              ],
              [
                36.9016,
                -1.2329
              ],
              [
                36.9055,
                -1.231
              ],
              [
                36.9111,
                -1.2346
              ],
              [
                36.9096,
                -1.236
              ],
              [
                36.9032,
                -1.2363
              ],
              [
                36.9016,
                -1.2374
              ],
              [
                36.9017,
                -1.2397
              ],
              [
                36.8957,
                -1.2411
              ],
              [
                36.8959,
                -1.2431
              ],
              [
                36.8923,
                -1.2469
              ],
              [
                36.893,
                -1.25
              ],
              [
                36.8898,
                -1.252
              ],
              [
                36.8853,
                -1.2462
              ],
              [
                36.877,
                -1.2466
              ],
              [
                36.876,
                -1.2496
              ],
              [
                36.8641,
                -1.2549
              ],
              [
                36.8582,
                -1.2605
              ]
            ]
          ]
        ]
      }
    },
    {
      "type": "Feature",
      "properties": {
        "constituency": "Starehe"
      },
      "geometry": {
        "type": "MultiPolygon",
        "coordinates": [
          [
            [
              [
                36.852,
                -1.3139
              ],
              [
                36.8473,
                -1.3169
              ],
              [
                36.84,
                -1.3185
              ],
              [
                36.8303,
                -1.3119
              ],
              [
                36.8117,
                -1.2727
              ],
              [
                36.8152,
                -1.2671
              ],
              [
                36.8317,
                -1.2649
              ],
              [
                36.8369,
                -1.2618
              ],
              [
                36.8421,
                -1.262
              ],
              [
                36.8458,
                -1.2778
              ],
              [
                36.8438,
                -1.2779
              ],
              [
                36.8437,
                -1.2805
              ],
              [
                36.8379,
                -1.2825
              ],
              [
                36.8394,
                -1.2843
              ],
              [
                36.8315,
                -1.2834
              ],
              [
                36.8399,
                -1.2866
              ],
              [
                36.8402,
                -1.2898
              ],
              [
                36.8377,
                -1.2895
              ],
              [
                36.8447,
                -1.2992
              ],
              [
                36.8562,
                -1.298
              ],
              [
                36.8606,
                -1.3093
              ],
              [
                36.8559,
                -1.3138
              ],
              [
                36.852,
                -1.3139
              ]
            ]
          ]
        ]
      }
    },
    {
      "type": "Feature",
      "properties": {
        "constituency": "Westlands"
      },
      "geometry": {
        "type": "MultiPolygon",
        "coordinates": [
          [
            [
              [
                36.7492,
                -1.2717
              ],
              [
                36.7373,
                -1.2754
              ],
              [
                36.7184,
                -1.2606
              ],
              [
                36.7255,
                -1.2485
              ],
              [
                36.7249,
                -1.2415
              ],
              [
                36.7277,
                -1.2391
              ],
              [
                36.7292,
                -1.2278
              ],
              [
                36.7467,
                -1.2307
              ],
              [
                36.7567,
                -1.2125
              ],
              [
                36.7701,
                -1.2199
              ],
              [
                36.7716,
                -1.217
              ],
              [
                36.7783,
                -1.2203
              ],
              [
                36.7845,
                -1.2091
              ],
              [
                36.7835,
                -1.2083
              ],
              [
                36.7874,
                -1.2048
              ],
              [
                36.7844,
                -1.2037
              ],
              [
                36.7841,
                -1.2018
              ],
              [
                36.791,
                -1.1889
              ],
              [
                36.834,
                -1.2124
              ],
              [
                36.8345,
                -1.2182
              ],
              [
                36.8423,
                -1.2299
              ],
              [
                36.8437,
                -1.2413
              ],
              [
                36.8463,
                -1.2462
              ],
              [
                36.8398,
                -1.2609
              ],
              [
                36.8317,
                -1.2649
              ],
              [
                36.8152,
                -1.2671
              ],
              [
                36.8117,
                -1.2725
              ],
              [
                36.7987,
                -1.2591
              ],
              [
                36.7789,
                -1.2563
              ],
              [
                36.7528,
                -1.2616
              ],
              [
                36.7593,
                -1.265
              ],
              [
                36.7616,
                -1.2678
              ],
              [
                36.7575,
                -1.2686
              ],
              [
                36.7569,
                -1.2712
              ],
              [
                36.7492,
                -1.2717
              ]
            ]
          ]
        ]
      }
    }
  ]
}